{
  "type": "FeatureCollection",
  "features": [
    {
      "type": "Feature",
      "properties": {
        "norad_id": 30480,
        "name": "FENGYUN 1C DEB",
        "group": "fengyun-1c-debris",
        "lat": -20.6481095568927,
        "lon": 10.828396268735073,
        "alt_km": 884.5416750440763,
        "timestamp": "2025-12-19T04:59:48.582794+00:00",
        "meta_object_name": "FENGYUN 1C DEB",
        "meta_object_id": "1999-025AGS",
        "meta_epoch": "2025-12-18T17:39:22.076352",
        "meta_mean_motion": 14.33607342,
        "meta_eccentricity": 0.01665962,
        "meta_inclination": 98.2234,
        "meta_ra_of_asc_node": 7.2552,
        "meta_arg_of_pericenter": 127.83,
        "meta_mean_anomaly": 295.1525,
        "meta_ephemeris_type": 0,
        "meta_classification_type": "U",
        "meta_norad_cat_id": 30480,
        "meta_element_set_no": 999,
        "meta_rev_at_epoch": 98754,
        "meta_bstar": 0.0001540362,
        "meta_mean_motion_dot": 4.55e-06,
        "meta_mean_motion_ddot": 0,
        "tle_line1": "1 30480U 99025AGS 25352.73567218  .00000455  00000+0  15404-3 0  9996",
        "tle_line2": "2 30480  98.2234   7.2552 0166596 127.8300 295.1525 14.33607342987545"
      },
      "geometry": {
        "type": "Point",
        "coordinates": [
          10.828396268735073,
          -20.6481095568927
        ]
      }
    },
    {
      "type": "Feature",
      "properties": {
        "norad_id": 30481,
        "name": "FENGYUN 1C DEB",
        "group": "fengyun-1c-debris",
        "lat": -38.18976286968945,
        "lon": -176.2851442855568,
        "alt_km": 619.6603283624017,
        "timestamp": "2025-12-19T04:59:48.582805+00:00",
        "meta_object_name": "FENGYUN 1C DEB",
        "meta_object_id": "1999-025AGT",
        "meta_epoch": "2025-12-18T23:18:12.688416",
        "meta_mean_motion": 14.39062972,
        "meta_eccentricity": 0.02231039,
        "meta_inclination": 98.3362,
        "meta_ra_of_asc_node": 10.1073,
        "meta_arg_of_pericenter": 241.1549,
        "meta_mean_anomaly": 190.1156,
        "meta_ephemeris_type": 0,
        "meta_classification_type": "U",
        "meta_norad_cat_id": 30481,
        "meta_element_set_no": 999,
        "meta_rev_at_epoch": 98573,
        "meta_bstar": 0.00038530552,
        "meta_mean_motion_dot": 1.54e-05,
        "meta_mean_motion_ddot": 0,
        "tle_line1": "1 30481U 99025AGT 25352.97098019  .00001540  00000+0  38531-3 0  9993",
        "tle_line2": "2 30481  98.3362  10.1073 0223103 241.1549 190.1156 14.39062972985736"
      },
      "geometry": {
        "type": "Point",
        "coordinates": [
          -176.2851442855568,
          -38.18976286968945
        ]
      }
    },
    {
      "type": "Feature",
      "properties": {
        "norad_id": 30489,
        "name": "FENGYUN 1C DEB",
        "group": "fengyun-1c-debris",
        "lat": -71.50986826546472,
        "lon": 161.3288619577077,
        "alt_km": 747.1805919283097,
        "timestamp": "2025-12-19T04:59:48.582815+00:00",
        "meta_object_name": "FENGYUN 1C DEB",
        "meta_object_id": "1999-025AHB",
        "meta_epoch": "2025-12-18T21:35:21.056928",
        "meta_mean_motion": 14.15827923,
        "meta_eccentricity": 0.01390253,
        "meta_inclination": 98.468,
        "meta_ra_of_asc_node": 7.4903,
        "meta_arg_of_pericenter": 247.1509,
        "meta_mean_anomaly": 233.8159,
        "meta_ephemeris_type": 0,
        "meta_classification_type": "U",
        "meta_norad_cat_id": 30489,
        "meta_element_set_no": 999,
        "meta_rev_at_epoch": 97474,
        "meta_bstar": 0.0002219677,
        "meta_mean_motion_dot": 4.37e-06,
        "meta_mean_motion_ddot": 0,
        "tle_line1": "1 30489U 99025AHB 25352.89954927  .00000437  00000+0  22197-3 0  9996",
        "tle_line2": "2 30489  98.4680   7.4903 0139025 247.1509 233.8159 14.15827923974746"
      },
      "geometry": {
        "type": "Point",
        "coordinates": [
          161.3288619577077,
          -71.50986826546472
        ]
      }
    },
    {
      "type": "Feature",
      "properties": {
        "norad_id": 30490,
        "name": "FENGYUN 1C DEB",
        "group": "fengyun-1c-debris",
        "lat": 11.757419892952857,
        "lon": -52.61846337080406,
        "alt_km": 469.3305902906741,
        "timestamp": "2025-12-19T04:59:48.582825+00:00",
        "meta_object_name": "FENGYUN 1C DEB",
        "meta_object_id": "1999-025AHC",
        "meta_epoch": "2025-12-18T14:08:23.593344",
        "meta_mean_motion": 15.29641288,
        "meta_eccentricity": 0.00456978,
        "meta_inclination": 98.3298,
        "meta_ra_of_asc_node": 124.9408,
        "meta_arg_of_pericenter": 95.911,
        "meta_mean_anomaly": 264.7339,
        "meta_ephemeris_type": 0,
        "meta_classification_type": "U",
        "meta_norad_cat_id": 30490,
        "meta_element_set_no": 999,
        "meta_rev_at_epoch": 99585,
        "meta_bstar": 0.0030505324,
        "meta_mean_motion_dot": 0.00091306,
        "meta_mean_motion_ddot": 0,
        "tle_line1": "1 30490U 99025AHC 25352.58916196  .00091306  00000+0  30505-2 0  9996",
        "tle_line2": "2 30490  98.3298 124.9408 0045697  95.9110 264.7339 15.29641288995857"
      },
      "geometry": {
        "type": "Point",
        "coordinates": [
          -52.61846337080406,
          11.757419892952857
        ]
      }
    },
    {
      "type": "Feature",
      "properties": {
        "norad_id": 30492,
        "name": "FENGYUN 1C DEB",
        "group": "fengyun-1c-debris",
        "lat": 48.677087911629826,
        "lon": -152.16039816397856,
        "alt_km": 706.941338438337,
        "timestamp": "2025-12-19T04:59:48.582836+00:00",
        "meta_object_name": "FENGYUN 1C DEB",
        "meta_object_id": "1999-025AHE",
        "meta_epoch": "2025-12-18T16:50:02.640480",
        "meta_mean_motion": 14.51996911,
        "meta_eccentricity": 0.00943389,
        "meta_inclination": 102.3249,
        "meta_ra_of_asc_node": 12.7004,
        "meta_arg_of_pericenter": 47.0212,
        "meta_mean_anomaly": 313.8829,
        "meta_ephemeris_type": 0,
        "meta_classification_type": "U",
        "meta_norad_cat_id": 30492,
        "meta_element_set_no": 999,
        "meta_rev_at_epoch": 96981,
        "meta_bstar": 0.0023756665,
        "meta_mean_motion_dot": 0.000101,
        "meta_mean_motion_ddot": 0,
        "tle_line1": "1 30492U 99025AHE 25352.70141945  .00010100  00000+0  23757-2 0  9998",
        "tle_line2": "2 30492 102.3249  12.7004 0094338  47.0212 313.8829 14.51996911969811"
      },
      "geometry": {
        "type": "Point",
        "coordinates": [
          -152.16039816397856,
          48.677087911629826
        ]
      }
    },
    {
      "type": "Feature",
      "properties": {
        "norad_id": 30493,
        "name": "FENGYUN 1C DEB",
        "group": "fengyun-1c-debris",
        "lat": 23.980006557594447,
        "lon": 6.9097413312469005,
        "alt_km": 819.9996388597601,
        "timestamp": "2025-12-19T04:59:48.582846+00:00",
        "meta_object_name": "FENGYUN 1C DEB",
        "meta_object_id": "1999-025AHF",
        "meta_epoch": "2025-12-18T11:08:53.995776",
        "meta_mean_motion": 13.9300992,
        "meta_eccentricity": 0.01811093,
        "meta_inclination": 98.5686,
        "meta_ra_of_asc_node": 182.3754,
        "meta_arg_of_pericenter": 200.8998,
        "meta_mean_anomaly": 188.7168,
        "meta_ephemeris_type": 0,
        "meta_classification_type": "U",
        "meta_norad_cat_id": 30493,
        "meta_element_set_no": 999,
        "meta_rev_at_epoch": 95175,
        "meta_bstar": 0.0026464168,
        "meta_mean_motion_dot": 3.897e-05,
        "meta_mean_motion_ddot": 0,
        "tle_line1": "1 30493U 99025AHF 25352.46451384  .00003897  00000+0  26464-2 0  9996",
        "tle_line2": "2 30493  98.5686 182.3754 0181109 200.8998 188.7168 13.93009920951751"
      },
      "geometry": {
        "type": "Point",
        "coordinates": [
          6.9097413312469005,
          23.980006557594447
        ]
      }
    },
    {
      "type": "Feature",
      "properties": {
        "norad_id": 30494,
        "name": "FENGYUN 1C DEB",
        "group": "fengyun-1c-debris",
        "lat": 61.68482262543504,
        "lon": -133.86642506473592,
        "alt_km": 953.4239594929159,
        "timestamp": "2025-12-19T04:59:48.582856+00:00",
        "meta_object_name": "FENGYUN 1C DEB",
        "meta_object_id": "1999-025AHG",
        "meta_epoch": "2025-12-16T01:33:38.382048",
        "meta_mean_motion": 13.79381802,
        "meta_eccentricity": 0.01860202,
        "meta_inclination": 99.2829,
        "meta_ra_of_asc_node": 25.381,
        "meta_arg_of_pericenter": 213.4488,
        "meta_mean_anomaly": 145.4803,
        "meta_ephemeris_type": 0,
        "meta_classification_type": "U",
        "meta_norad_cat_id": 30494,
        "meta_element_set_no": 999,
        "meta_rev_at_epoch": 94532,
        "meta_bstar": 0.0011833464,
        "meta_mean_motion_dot": 1.34e-05,
        "meta_mean_motion_ddot": 0,
        "tle_line1": "1 30494U 99025AHG 25350.06502757  .00001340  00000+0  11833-2 0  9997",
        "tle_line2": "2 30494  99.2829  25.3810 0186020 213.4488 145.4803 13.79381802945327"
      },
      "geometry": {
        "type": "Point",
        "coordinates": [
          -133.86642506473592,
          61.68482262543504
        ]
      }
    }
  ]
}